CCSDS_OMM_VERS = 2.0
CREATION_DATE  = 
ORIGINATOR     = 

OBJECT_NAME    = SENTINEL-1D
OBJECT_ID      = 2025-251A
CENTER_NAME    = EARTH
REF_FRAME      = TEME
TIME_SYSTEM    = UTC
MEAN_ELEMENT_THEORY = SGP/SGP4

EPOCH          = 2025-12-03T14:30:47.068416
MEAN_MOTION    = 14.59911030
ECCENTRICITY   = .00026458
INCLINATION    = 98.1924
RA_OF_ASC_NODE = 342.7567
ARG_OF_PERICENTER = 152.8376
MEAN_ANOMALY   = 207.2963

EPHEMERIS_TYPE = 0
CLASSIFICATION_TYPE = U
NORAD_CAT_ID   = 66315
ELEMENT_SET_NO = 999
REV_AT_EPOCH   = 420
BSTAR          = .80054337E-4
MEAN_MOTION_DOT = .337E-5
MEAN_MOTION_DDOT = 0

CCSDS_OMM_VERS = 2.0
CREATION_DATE  = 
ORIGINATOR     = 

OBJECT_NAME    = QPS-SAR-14 (YACHIHOKO-I)
OBJECT_ID      = 2025-252A
CENTER_NAME    = EARTH
REF_FRAME      = TEME
TIME_SYSTEM    = UTC
MEAN_ELEMENT_THEORY = SGP/SGP4

EPOCH          = 2025-12-03T11:11:07.714464
MEAN_MOTION    = 14.97541562
ECCENTRICITY   = .00068382
INCLINATION    = 42.0031
RA_OF_ASC_NODE = 126.2285
ARG_OF_PERICENTER = 87.0305
MEAN_ANOMALY   = 273.1302

EPHEMERIS_TYPE = 0
CLASSIFICATION_TYPE = U
NORAD_CAT_ID   = 66316
ELEMENT_SET_NO = 999
REV_AT_EPOCH   = 414
BSTAR          = .71030932E-3
MEAN_MOTION_DOT = .8256E-4
MEAN_MOTION_DDOT = 0

CCSDS_OMM_VERS = 2.0
CREATION_DATE  = 
ORIGINATOR     = 

OBJECT_NAME    = ELECTRON R/B
OBJECT_ID      = 2025-252B
CENTER_NAME    = EARTH
REF_FRAME      = TEME
TIME_SYSTEM    = UTC
MEAN_ELEMENT_THEORY = SGP/SGP4

EPOCH          = 2025-12-03T17:54:17.702208
MEAN_MOTION    = 16.11372677
ECCENTRICITY   = .00810811
INCLINATION    = 41.9860
RA_OF_ASC_NODE = 105.3311
ARG_OF_PERICENTER = 73.5218
MEAN_ANOMALY   = 287.4538

EPHEMERIS_TYPE = 0
CLASSIFICATION_TYPE = U
NORAD_CAT_ID   = 66317
ELEMENT_SET_NO = 999
REV_AT_EPOCH   = 440
BSTAR          = .17947301E-2
MEAN_MOTION_DOT = .3381088E-1
MEAN_MOTION_DDOT = .8186283E-5

CCSDS_OMM_VERS = 2.0
CREATION_DATE  = 
ORIGINATOR     = 

OBJECT_NAME    = STARLINK-35442
OBJECT_ID      = 2025-253A
CENTER_NAME    = EARTH
REF_FRAME      = TEME
TIME_SYSTEM    = UTC
MEAN_ELEMENT_THEORY = SGP/SGP4

EPOCH          = 2025-12-03T22:00:03.000096
MEAN_MOTION    = 15.40830376
ECCENTRICITY   = .00017078
INCLINATION    = 43.0012
RA_OF_ASC_NODE = 36.7208
ARG_OF_PERICENTER = 266.1201
MEAN_ANOMALY   = 279.1335

EPHEMERIS_TYPE = 0
CLASSIFICATION_TYPE = U
NORAD_CAT_ID   = 66319
ELEMENT_SET_NO = 999
REV_AT_EPOCH   = 560
BSTAR          = -.71802901E-2
MEAN_MOTION_DOT = -.290384E-2
MEAN_MOTION_DDOT = 0

CCSDS_OMM_VERS = 2.0
CREATION_DATE  = 
ORIGINATOR     = 

OBJECT_NAME    = STARLINK-34616
OBJECT_ID      = 2025-253B
CENTER_NAME    = EARTH
REF_FRAME      = TEME
TIME_SYSTEM    = UTC
MEAN_ELEMENT_THEORY = SGP/SGP4

EPOCH          = 2025-12-03T11:15:28.443744
MEAN_MOTION    = 15.50616353
ECCENTRICITY   = .00037047
INCLINATION    = 42.9968
RA_OF_ASC_NODE = 38.9560
ARG_OF_PERICENTER = 219.5351
MEAN_ANOMALY   = 140.5240

EPHEMERIS_TYPE = 0
CLASSIFICATION_TYPE = U
NORAD_CAT_ID   = 66320
ELEMENT_SET_NO = 999
REV_AT_EPOCH   = 557
BSTAR          = .21204333E-2
MEAN_MOTION_DOT = .126267E-2
MEAN_MOTION_DDOT = 0

CCSDS_OMM_VERS = 2.0
CREATION_DATE  = 
ORIGINATOR     = 

OBJECT_NAME    = STARLINK-34615
OBJECT_ID      = 2025-253C
CENTER_NAME    = EARTH
REF_FRAME      = TEME
TIME_SYSTEM    = UTC
MEAN_ELEMENT_THEORY = SGP/SGP4

EPOCH          = 2025-12-03T22:00:03.000096
MEAN_MOTION    = 15.54160766
ECCENTRICITY   = .00013755
INCLINATION    = 43.0005
RA_OF_ASC_NODE = 35.5446
ARG_OF_PERICENTER = 266.1940
MEAN_ANOMALY   = 39.6851

EPHEMERIS_TYPE = 0
CLASSIFICATION_TYPE = U
NORAD_CAT_ID   = 66321
ELEMENT_SET_NO = 999
REV_AT_EPOCH   = 555
BSTAR          = -.40846099E-1
MEAN_MOTION_DOT = -.2383257E-1
MEAN_MOTION_DDOT = 0

CCSDS_OMM_VERS = 2.0
CREATION_DATE  = 
ORIGINATOR     = 

OBJECT_NAME    = STARLINK-35292
OBJECT_ID      = 2025-253D
CENTER_NAME    = EARTH
REF_FRAME      = TEME
TIME_SYSTEM    = UTC
MEAN_ELEMENT_THEORY = SGP/SGP4

EPOCH          = 2025-12-03T22:00:03.000096
MEAN_MOTION    = 15.40671490
ECCENTRICITY   = .00013768
INCLINATION    = 43.0009
RA_OF_ASC_NODE = 36.6281
ARG_OF_PERICENTER = 273.9096
MEAN_ANOMALY   = 308.6259

EPHEMERIS_TYPE = 0
CLASSIFICATION_TYPE = U
NORAD_CAT_ID   = 66322
ELEMENT_SET_NO = 999
REV_AT_EPOCH   = 551
BSTAR          = .1202322E-2
MEAN_MOTION_DOT = .50204E-3
MEAN_MOTION_DDOT = 0

CCSDS_OMM_VERS = 2.0
CREATION_DATE  = 
ORIGINATOR     = 

OBJECT_NAME    = STARLINK-35309
OBJECT_ID      = 2025-253E
CENTER_NAME    = EARTH
REF_FRAME      = TEME
TIME_SYSTEM    = UTC
MEAN_ELEMENT_THEORY = SGP/SGP4

EPOCH          = 2025-12-03T12:44:13.575552
MEAN_MOTION    = 15.50627350
ECCENTRICITY   = .00017369
INCLINATION    = 42.9999
RA_OF_ASC_NODE = 38.5588
ARG_OF_PERICENTER = 269.0685
MEAN_ANOMALY   = 90.9976

EPHEMERIS_TYPE = 0
CLASSIFICATION_TYPE = U
NORAD_CAT_ID   = 66323
ELEMENT_SET_NO = 999
REV_AT_EPOCH   = 550
BSTAR          = .16514731E-2
MEAN_MOTION_DOT = .97932E-3
MEAN_MOTION_DDOT = 0

CCSDS_OMM_VERS = 2.0
CREATION_DATE  = 
ORIGINATOR     = 

OBJECT_NAME    = STARLINK-35506
OBJECT_ID      = 2025-253F
CENTER_NAME    = EARTH
REF_FRAME      = TEME
TIME_SYSTEM    = UTC
MEAN_ELEMENT_THEORY = SGP/SGP4

EPOCH          = 2025-12-03T12:46:12.432576
MEAN_MOTION    = 15.50590090
ECCENTRICITY   = .00008705
INCLINATION    = 43.0006
RA_OF_ASC_NODE = 38.5692
ARG_OF_PERICENTER = 276.2742
MEAN_ANOMALY   = 83.8019

EPHEMERIS_TYPE = 0
CLASSIFICATION_TYPE = U
NORAD_CAT_ID   = 66324
ELEMENT_SET_NO = 999
REV_AT_EPOCH   = 550
BSTAR          = .45167229E-3
MEAN_MOTION_DOT = .26255E-3
MEAN_MOTION_DDOT = 0

CCSDS_OMM_VERS = 2.0
CREATION_DATE  = 
ORIGINATOR     = 

OBJECT_NAME    = STARLINK-35504
OBJECT_ID      = 2025-253G
CENTER_NAME    = EARTH
REF_FRAME      = TEME
TIME_SYSTEM    = UTC
MEAN_ELEMENT_THEORY = SGP/SGP4

EPOCH          = 2025-12-03T22:00:03.000096
MEAN_MOTION    = 15.40718243
ECCENTRICITY   = .00013875
INCLINATION    = 43.0007
RA_OF_ASC_NODE = 36.4170
ARG_OF_PERICENTER = 295.3459
MEAN_ANOMALY   = 14.3045

EPHEMERIS_TYPE = 0
CLASSIFICATION_TYPE = U
NORAD_CAT_ID   = 66325
ELEMENT_SET_NO = 999
REV_AT_EPOCH   = 551
BSTAR          = -.20699771E-2
MEAN_MOTION_DOT = -.85857E-3
MEAN_MOTION_DDOT = 0

CCSDS_OMM_VERS = 2.0
CREATION_DATE  = 
ORIGINATOR     = 

OBJECT_NAME    = STARLINK-35479
OBJECT_ID      = 2025-253H
CENTER_NAME    = EARTH
REF_FRAME      = TEME
TIME_SYSTEM    = UTC
MEAN_ELEMENT_THEORY = SGP/SGP4

EPOCH          = 2025-12-03T15:49:14.832480
MEAN_MOTION    = 15.50617936
ECCENTRICITY   = .00011664
INCLINATION    = 43.0004
RA_OF_ASC_NODE = 37.8005
ARG_OF_PERICENTER = 257.3390
MEAN_ANOMALY   = 102.7340

EPHEMERIS_TYPE = 0
CLASSIFICATION_TYPE = U
NORAD_CAT_ID   = 66326
ELEMENT_SET_NO = 999
REV_AT_EPOCH   = 552
BSTAR          = .16625411E-2
MEAN_MOTION_DOT = .98564E-3
MEAN_MOTION_DDOT = 0

CCSDS_OMM_VERS = 2.0
CREATION_DATE  = 
ORIGINATOR     = 

OBJECT_NAME    = STARLINK-35507
OBJECT_ID      = 2025-253J
CENTER_NAME    = EARTH
REF_FRAME      = TEME
TIME_SYSTEM    = UTC
MEAN_ELEMENT_THEORY = SGP/SGP4

EPOCH          = 2025-12-03T12:46:42.428928
MEAN_MOTION    = 15.50619877
ECCENTRICITY   = .00014974
INCLINATION    = 43.0002
RA_OF_ASC_NODE = 38.5738
ARG_OF_PERICENTER = 351.1702
MEAN_ANOMALY   = 8.9131

EPHEMERIS_TYPE = 0
CLASSIFICATION_TYPE = U
NORAD_CAT_ID   = 66327
ELEMENT_SET_NO = 999
REV_AT_EPOCH   = 550
BSTAR          = .24915595E-2
MEAN_MOTION_DOT = .148855E-2
MEAN_MOTION_DDOT = 0

