SENTINEL-1D             
1 66315U 25251A   25337.60471144  .00000337  00000+0  80054-4 0  9996
2 66315  98.1924 342.7567 0002645 152.8376 207.2963 14.59911030  4207
QPS-SAR-14 (YACHIHOKO-I)
1 66316U 25252A   25337.46606151  .00008256  00000+0  71031-3 0  9992
2 66316  42.0031 126.2285 0006838  87.0305 273.1302 14.97541562  4149
ELECTRON R/B            
1 66317U 25252B   25337.74603822  .03381088  81863-5  17947-2 0  9993
2 66317  41.9860 105.3311 0081081  73.5218 287.4538 16.11372677  4407
STARLINK-35442          
1 66319U 25253A   25337.91670139 -.00290384  00000+0 -71803-2 0  9996
2 66319  43.0012  36.7208 0001707 266.1201 279.1335 15.40830376  5604
STARLINK-34616          
1 66320U 25253B   25337.46907921  .00126267  00000+0  21204-2 0  9996
2 66320  42.9968  38.9560 0003704 219.5351 140.5240 15.50616353  5576
STARLINK-34615          
1 66321U 25253C   25337.91670139 -.02383257  00000+0 -40846-1 0  9995
2 66321  43.0005  35.5446 0001375 266.1940  39.6851 15.54160766  5551
STARLINK-35292          
1 66322U 25253D   25337.91670139  .00050204  00000+0  12023-2 0  9992
2 66322  43.0009  36.6281 0001376 273.9096 308.6259 15.40671490  5517
STARLINK-35309          
1 66323U 25253E   25337.53071268  .00097932  00000+0  16515-2 0  9998
2 66323  42.9999  38.5588 0001736 269.0685  90.9976 15.50627350  5508
STARLINK-35506          
1 66324U 25253F   25337.53208834  .00026255  00000+0  45167-3 0  9996
2 66324  43.0006  38.5692 0000870 276.2742  83.8019 15.50590090  5507
STARLINK-35504          
1 66325U 25253G   25337.91670139 -.00085857  00000+0 -20700-2 0  9990
2 66325  43.0007  36.4170 0001387 295.3459  14.3045 15.40718243  5518
STARLINK-35479          
1 66326U 25253H   25337.65919945  .00098564  00000+0  16625-2 0  9991
2 66326  43.0004  37.8005 0001166 257.3390 102.7340 15.50617936  5524
STARLINK-35507          
1 66327U 25253J   25337.53243552  .00148855  00000+0  24916-2 0  9994
2 66327  43.0002  38.5738 0001497 351.1702   8.9131 15.50619877  5500
